[
    {
        "Altitude(m)": 604221.2098651809,
        "Argument of Periapsis(deg)": 0.0,
        "Eccentricity": 0.0,
        "Inclination(deg)": 60.0,
        "Latitude(deg)": 14.117277435421776,
        "Longitude(deg)": -171.66582475182213,
        "Mean Anomaly(deg)": 16.363599999999984,
        "RAAN(deg)": 280.0,
        "Satellite Name": "Test1 1233",
        "Satellite Number": 1233,
        "Semi-Major Axis(m)": 6980739.136638005,
        "Time(s)": 0
    },
    {
        "Altitude(m)": 604235.3508906425,
        "Argument of Periapsis(deg)": 0.00010418945913296404,
        "Eccentricity": 0.0,
        "Inclination(deg)": 60.0,
        "Latitude(deg)": 14.651673762836452,
        "Longitude(deg)": -171.3773769190864,
        "Mean Anomaly(deg)": 16.983706145461838,
        "RAAN(deg)": 279.99957995086027,
        "Satellite Name": "Test1 1233",
        "Satellite Number": 1233,
        "Semi-Major Axis(m)": 6980739.136638005,
        "Time(s)": 10
    }
]